{"fetched_at":"2026-03-30T06:02:59Z","count":15439,"tles":[{"name":"STARLINK-34778","line1":"1 65021U 25161G   26087.68063064  .00006777  00000+0  24128-3 0  9991","line2":"2 65021  53.1576 206.2614 0001310  41.9449 318.1652 15.30124378 38225","category":"Starlink"}]}